[{"OBJECT_NAME":"TRANSPORTER-12 OBJECT BT","OBJECT_ID":"2025-009BT","EPOCH":"2026-03-09T17:08:24.281088","MEAN_MOTION":15.27872239,"ECCENTRICITY":0.00036816,"INCLINATION":97.4094,"RA_OF_ASC_NODE":151.5992,"ARG_OF_PERICENTER":313.5044,"MEAN_ANOMALY":46.5889,"EPHEMERIS_TYPE":0,"CLASSIFICATION_TYPE":"U","NORAD_CAT_ID":62674,"ELEMENT_SET_NO":999,"REV_AT_EPOCH":12136,"BSTAR":0.000510288,"MEAN_MOTION_DOT":0.00013824,"MEAN_MOTION_DDOT":0},{"OBJECT_NAME":"STARLINK-36483","OBJECT_ID":"2026-002AB","EPOCH":"2026-03-09T02:05:19.096512","MEAN_MOTION":15.27577963,"ECCENTRICITY":0.00015101,"INCLINATION":43.0008,"RA_OF_ASC_NODE":328.9343,"ARG_OF_PERICENTER":287.9973,"MEAN_ANOMALY":72.0714,"EPHEMERIS_TYPE":0,"CLASSIFICATION_TYPE":"U","NORAD_CAT_ID":67330,"ELEMENT_SET_NO":999,"REV_AT_EPOCH":1114,"BSTAR":0.0012629296,"MEAN_MOTION_DOT":0.00034652,"MEAN_MOTION_DDOT":0}]
